{
  "type": "FeatureCollection",
  "features": [
    {
      "type": "Feature",
      "properties": {
        "norad_id": 43208,
        "name": "BEIDOU-3 M3 (C21)",
        "group": "beidou",
        "lat": -16.762527535179625,
        "lon": -98.88768926271577,
        "alt_km": 21538.55007702831,
        "timestamp": "2025-12-03T13:52:09.826736+00:00",
        "meta_object_name": "BEIDOU-3 M3 (C21)",
        "meta_object_id": "2018-018B",
        "meta_epoch": "2025-12-03T06:41:57.694272",
        "meta_mean_motion": 1.86230862,
        "meta_eccentricity": 0.00062821,
        "meta_inclination": 56.4772,
        "meta_ra_of_asc_node": 69.6218,
        "meta_arg_of_pericenter": 317.5873,
        "meta_mean_anomaly": 42.3668,
        "meta_ephemeris_type": 0,
        "meta_classification_type": "U",
        "meta_norad_cat_id": 43208,
        "meta_element_set_no": 999,
        "meta_rev_at_epoch": 5309,
        "meta_bstar": 0,
        "meta_mean_motion_dot": -4.9e-07,
        "meta_mean_motion_ddot": 0,
        "tle_line1": "1 43208U 18018B   25337.27913998 -.00000049  00000+0  00000+0 0  9995",
        "tle_line2": "2 43208  56.4772  69.6218 0006282 317.5873  42.3668  1.86230862 53096"
      },
      "geometry": {
        "type": "Point",
        "coordinates": [
          -98.88768926271577,
          -16.762527535179625
        ]
      }
    },
    {
      "type": "Feature",
      "properties": {
        "norad_id": 43245,
        "name": "BEIDOU-3 M9 (C29)",
        "group": "beidou",
        "lat": 42.007772807791355,
        "lon": -13.026225781884884,
        "alt_km": 21527.285305534137,
        "timestamp": "2025-12-03T13:52:09.826748+00:00",
        "meta_object_name": "BEIDOU-3 M9 (C29)",
        "meta_object_id": "2018-029A",
        "meta_epoch": "2025-12-01T08:20:14.784576",
        "meta_mean_motion": 1.86227904,
        "meta_eccentricity": 0.00017985,
        "meta_inclination": 54.3765,
        "meta_ra_of_asc_node": 306.8658,
        "meta_arg_of_pericenter": 272.1738,
        "meta_mean_anomaly": 87.7976,
        "meta_ephemeris_type": 0,
        "meta_classification_type": "U",
        "meta_norad_cat_id": 43245,
        "meta_element_set_no": 999,
        "meta_rev_at_epoch": 5221,
        "meta_bstar": 0,
        "meta_mean_motion_dot": -5.8e-07,
        "meta_mean_motion_ddot": 0,
        "tle_line1": "1 43245U 18029A   25335.34739334 -.00000058  00000+0  00000+0 0  9994",
        "tle_line2": "2 43245  54.3765 306.8658 0001798 272.1738  87.7976  1.86227904 52214"
      },
      "geometry": {
        "type": "Point",
        "coordinates": [
          -13.026225781884884,
          42.007772807791355
        ]
      }
    },
    {
      "type": "Feature",
      "properties": {
        "norad_id": 43246,
        "name": "BEIDOU-3 M10 (C30)",
        "group": "beidou",
        "lat": 53.42022163855279,
        "lon": 51.7911023631846,
        "alt_km": 21523.88301032284,
        "timestamp": "2025-12-03T13:52:09.826760+00:00",
        "meta_object_name": "BEIDOU-3 M10 (C30)",
        "meta_object_id": "2018-029B",
        "meta_epoch": "2025-12-01T06:47:05.876160",
        "meta_mean_motion": 1.86228878,
        "meta_eccentricity": 0.00039456,
        "meta_inclination": 54.3738,
        "meta_ra_of_asc_node": 306.8948,
        "meta_arg_of_pericenter": 359.0854,
        "meta_mean_anomaly": 0.9061,
        "meta_ephemeris_type": 0,
        "meta_classification_type": "U",
        "meta_norad_cat_id": 43246,
        "meta_element_set_no": 999,
        "meta_rev_at_epoch": 5219,
        "meta_bstar": 0,
        "meta_mean_motion_dot": -5.7e-07,
        "meta_mean_motion_ddot": 0,
        "tle_line1": "1 43246U 18029B   25335.28270690 -.00000057  00000+0  00000+0 0  9992",
        "tle_line2": "2 43246  54.3738 306.8948 0003945 359.0854   0.9061  1.86228878 52197"
      },
      "geometry": {
        "type": "Point",
        "coordinates": [
          51.7911023631846,
          53.42022163855279
        ]
      }
    },
    {
      "type": "Feature",
      "properties": {
        "norad_id": 43539,
        "name": "BEIDOU-2 IGSO-7 (C16)",
        "group": "beidou",
        "lat": -36.9828150981151,
        "lon": 16.427541902253466,
        "alt_km": 35407.89234125052,
        "timestamp": "2025-12-03T13:52:09.826772+00:00",
        "meta_object_name": "BEIDOU-2 IGSO-7 (C16)",
        "meta_object_id": "2018-057A",
        "meta_epoch": "2025-12-02T22:52:29.161056",
        "meta_mean_motion": 1.0025968,
        "meta_eccentricity": 0.00924759,
        "meta_inclination": 55.1727,
        "meta_ra_of_asc_node": 164.7578,
        "meta_arg_of_pericenter": 235.1616,
        "meta_mean_anomaly": 126.6896,
        "meta_ephemeris_type": 0,
        "meta_classification_type": "U",
        "meta_norad_cat_id": 43539,
        "meta_element_set_no": 999,
        "meta_rev_at_epoch": 2716,
        "meta_bstar": 0,
        "meta_mean_motion_dot": -2.1e-07,
        "meta_mean_motion_ddot": 0,
        "tle_line1": "1 43539U 18057A   25336.95311529 -.00000021  00000+0  00000+0 0  9991",
        "tle_line2": "2 43539  55.1727 164.7578 0092475 235.1616 126.6896  1.00259680 27167"
      },
      "geometry": {
        "type": "Point",
        "coordinates": [
          16.427541902253466,
          -36.9828150981151
        ]
      }
    },
    {
      "type": "Feature",
      "properties": {
        "norad_id": 43581,
        "name": "BEIDOU-3 M5 (C23)",
        "group": "beidou",
        "lat": -39.59118149236171,
        "lon": 152.14505899747093,
        "alt_km": 21528.584572541753,
        "timestamp": "2025-12-03T13:52:09.826784+00:00",
        "meta_object_name": "BEIDOU-3 M5 (C23)",
        "meta_object_id": "2018-062A",
        "meta_epoch": "2025-11-30T23:17:32.661024",
        "meta_mean_motion": 1.8622853,
        "meta_eccentricity": 0.0002124,
        "meta_inclination": 54.0891,
        "meta_ra_of_asc_node": 189.0442,
        "meta_arg_of_pericenter": 349.7703,
        "meta_mean_anomaly": 10.3183,
        "meta_ephemeris_type": 0,
        "meta_classification_type": "U",
        "meta_norad_cat_id": 43581,
        "meta_element_set_no": 999,
        "meta_rev_at_epoch": 4994,
        "meta_bstar": 0,
        "meta_mean_motion_dot": 1.17e-06,
        "meta_mean_motion_ddot": 0,
        "tle_line1": "1 43581U 18062A   25334.97051691  .00000117  00000+0  00000+0 0  9990",
        "tle_line2": "2 43581  54.0891 189.0442 0002124 349.7703  10.3183  1.86228530 49947"
      },
      "geometry": {
        "type": "Point",
        "coordinates": [
          152.14505899747093,
          -39.59118149236171
        ]
      }
    },
    {
      "type": "Feature",
      "properties": {
        "norad_id": 43582,
        "name": "BEIDOU-3 M6 (C24)",
        "group": "beidou",
        "lat": 31.314968922853595,
        "lon": -144.88743683898667,
        "alt_km": 21503.04667364631,
        "timestamp": "2025-12-03T13:52:09.826795+00:00",
        "meta_object_name": "BEIDOU-3 M6 (C24)",
        "meta_object_id": "2018-062B",
        "meta_epoch": "2025-11-29T18:14:01.707936",
        "meta_mean_motion": 1.86229617,
        "meta_eccentricity": 0.00076529,
        "meta_inclination": 54.0888,
        "meta_ra_of_asc_node": 189.0746,
        "meta_arg_of_pericenter": 45.4041,
        "meta_mean_anomaly": 314.7474,
        "meta_ephemeris_type": 0,
        "meta_classification_type": "U",
        "meta_norad_cat_id": 43582,
        "meta_element_set_no": 999,
        "meta_rev_at_epoch": 4992,
        "meta_bstar": 0,
        "meta_mean_motion_dot": 1.07e-06,
        "meta_mean_motion_ddot": 0,
        "tle_line1": "1 43582U 18062B   25333.75974199  .00000107  00000+0  00000+0 0  9992",
        "tle_line2": "2 43582  54.0888 189.0746 0007652  45.4041 314.7474  1.86229617 49926"
      },
      "geometry": {
        "type": "Point",
        "coordinates": [
          -144.88743683898667,
          31.314968922853595
        ]
      }
    },
    {
      "type": "Feature",
      "properties": {
        "norad_id": 43602,
        "name": "BEIDOU-3 M12 (C26)",
        "group": "beidou",
        "lat": 53.35602027222532,
        "lon": -96.1814306940313,
        "alt_km": 21502.899049887168,
        "timestamp": "2025-12-03T13:52:09.826807+00:00",
        "meta_object_name": "BEIDOU-3 M12 (C26)",
        "meta_object_id": "2018-067A",
        "meta_epoch": "2025-12-02T22:03:38.488608",
        "meta_mean_motion": 1.86227625,
        "meta_eccentricity": 0.00091443,
        "meta_inclination": 54.1831,
        "meta_ra_of_asc_node": 187.6966,
        "meta_arg_of_pericenter": 40.498,
        "meta_mean_anomaly": 319.6647,
        "meta_ephemeris_type": 0,
        "meta_classification_type": "U",
        "meta_norad_cat_id": 43602,
        "meta_element_set_no": 999,
        "meta_rev_at_epoch": 4946,
        "meta_bstar": 0,
        "meta_mean_motion_dot": 1.2e-06,
        "meta_mean_motion_ddot": 0,
        "tle_line1": "1 43602U 18067A   25336.91919547  .00000120  00000+0  00000+0 0  9992",
        "tle_line2": "2 43602  54.1831 187.6966 0009144  40.4980 319.6647  1.86227625 49463"
      },
      "geometry": {
        "type": "Point",
        "coordinates": [
          -96.1814306940313,
          53.35602027222532
        ]
      }
    }
  ]
}